GLOBALSTAR M045 [-]     
1 25676U 99019A   24047.33248950 -.00000078  00000+0  13806-3 0  9991
2 25676  51.9944 252.8727 0001171  54.0200 116.8781 12.27031798133621
GLOBALSTAR M019 [-]     
1 25677U 99019B   24047.55876155 -.00000163  00000+0 -75847-3 0  9999
2 25677  51.9910 348.3586 0001464  56.1893 114.4515 12.13852230126049
GLOBALSTAR M044 [-]     
1 25678U 99019C   24047.60311001 -.00000053  00000+0  42725-3 0  9996
2 25678  51.9934 238.7227 0006364 173.5061 229.1583 11.90229116113382
GLOBALSTAR M042 [-]     
1 25679U 99019D   24047.59980775 -.00000069  00000+0  21733-3 0  9998
2 25679  52.0043 344.5713 0003391  21.1567 149.8978 12.22055716125768
GLOBALSTAR M025 [-]     
1 25770U 99031A   24047.58729830 -.00000044  00000+0  72329-3 0  9996
2 25770  51.9782 206.5068 0002138  75.6697   2.1208 11.22549524427063
GLOBALSTAR M049 [-]     
1 25771U 99031B   24047.45719808  .00000013  00000+0  27301-2 0  9991
2 25771  51.9834 217.1115 0002128 275.8425  84.2128 11.12103053 63278
GLOBALSTAR M047 [-]     
1 25772U 99031C   24047.30750721 -.00000048  00000+0  59843-3 0  9991
2 25772  51.9804 260.9380 0016822 143.4830 216.7126 11.31918397415976
GLOBALSTAR M052 [-]     
1 25773U 99031D   24047.57417402 -.00000082  00000+0 -53393-3 0  9990
2 25773  51.9905 332.3658 0003036  80.6205  90.8252 11.15048294424223
